STARLINK-1506           
1 45747U 20038T   26068.66028804  .00025380  00000+0  97997-3 0  9997
2 45747  53.0733 202.5028 0002514 227.7836 132.2949 15.26134655316688
STARLINK-30264          
1 57534U 23115P   26068.40791260 -.00000064  00000+0  71732-5 0  9992
2 57534  42.9960 210.4823 0000753 146.8642 213.2257 15.27567754145317
